IRIDIUM 119             
1 42959U 17061E   25059.46822452  .00000055  00000+0  12536-4 0  9998
2 42959  86.3965 223.1563 0002356  94.1843 265.9622 14.34218264386919
IRIDIUM 107             
1 42960U 17061F   25058.99887470 -.00000050  00000+0 -24885-4 0  9995
2 42960  86.3969 223.3712 0002421  87.2151 272.9321 14.34216793386864
IRIDIUM 132             
1 42961U 17061G   25059.49359340  .00000059  00000+0  14133-4 0  9994
2 42961  86.3966 223.1470 0002151  89.4800 270.6643 14.34217796386929
IRIDIUM 136             
1 42962U 17061H   25058.54855232  .00000293  00000+0  97628-4 0  9991
2 42962  86.3965 223.5462 0002519  92.4195 267.7289 14.34218615386804
IRIDIUM 139             
1 42963U 17061J   25059.46188333 -.00000001  00000+0 -73180-5 0  9992
2 42963  86.3971 223.2192 0002242  86.9814 273.1638 14.34217465386944
IRIDIUM 125             
1 42964U 17061K   25058.89105057 -.00000009  00000+0 -10239-4 0  9994
2 42964  86.3973 223.5100 0002581  98.5372 261.6116 14.34217436386876
IRIDIUM 135             
1 43070U 17083A   25058.51633023  .00000462  00000+0  15782-3 0  9993
2 43070  86.4038 160.4344 0001960  98.7346 261.4071 14.34217993376112
IRIDIUM 138             
1 43071U 17083B   25059.37892657  .00000220  00000+0  71566-4 0  9994
2 43071  86.4025 159.7601 0002586 109.7450 250.4025 14.34217658376227
